{
    "links": {
        "self": "http://www.neowsapp.com/rest/v1/neo/3829429?api_key=iIulBulltgU6a56xZRHN4H3l9WmuAYTsLGpBGhQ2"
    },
    "id": "3829429",
    "neo_reference_id": "3829429",
    "name": "(2018 RW5)",
    "designation": "2018 RW5",
    "nasa_jpl_url": "http://ssd.jpl.nasa.gov/sbdb.cgi?sstr=3829429",
    "absolute_magnitude_h": 24.7,
    "estimated_diameter": {
        "kilometers": {
            "estimated_diameter_min": 0.0305179233,
            "estimated_diameter_max": 0.0682401509
        },
        "meters": {
            "estimated_diameter_min": 30.5179232594,
            "estimated_diameter_max": 68.2401509401
        },
        "miles": {
            "estimated_diameter_min": 0.0189629525,
            "estimated_diameter_max": 0.0424024508
        },
        "feet": {
            "estimated_diameter_min": 100.1244233463,
            "estimated_diameter_max": 223.8850168104
        }
    },
    "is_potentially_hazardous_asteroid": false,
    "close_approach_data": [
        {
            "close_approach_date": "2018-09-04",
            "close_approach_date_full": "2018-Sep-04 07:43",
            "epoch_date_close_approach": 1536046980000,
            "relative_velocity": {
                "kilometers_per_second": "16.0813574371",
                "kilometers_per_hour": "57892.8867737213",
                "miles_per_hour": "35972.3884511492"
            },
            "miss_distance": {
                "astronomical": "0.0547713035",
                "lunar": "21.3060370615",
                "kilometers": "8193670.340723545",
                "miles": "5091310.662513121"
            },
            "orbiting_body": "Earth"
        }
    ],
    "orbital_data": {
        "orbit_id": "3",
        "orbit_determination_date": "2018-09-28 06:30:20",
        "first_observation_date": "2018-09-12",
        "last_observation_date": "2018-09-17",
        "data_arc_in_days": 5,
        "observations_used": 32,
        "orbit_uncertainty": "9",
        "minimum_orbit_intersection": ".0234604",
        "jupiter_tisserand_invariant": "4.040",
        "epoch_osculation": "2458375.5",
        "eccentricity": ".5449651853033481",
        "semi_major_axis": "1.686416086002425",
        "inclination": "1.780171063590701",
        "ascending_node_longitude": "245.6300915776611",
        "orbital_period": "799.9181132690522",
        "perihelion_distance": ".7673780311955664",
        "perihelion_argument": "21.38489890408237",
        "aphelion_distance": "2.605454140809284",
        "perihelion_time": "2458317.597128073363",
        "mean_anomaly": "26.05895972076594",
        "mean_motion": ".450046066001401",
        "equinox": "J2000",
        "orbit_class": {
            "orbit_class_type": "APO",
            "orbit_class_description": "Near-Earth asteroid orbits which cross the Earth’s orbit similar to that of 1862 Apollo",
            "orbit_class_range": "a (semi-major axis) > 1.0 AU; q (perihelion) < 1.017 AU"
        }
    },
    "is_sentry_object": false
}